IRIDIUM 112             
1 41925U 17003J   25265.36196551  .00000408  00000+0  13872-3 0  9993
2 41925  86.4023 200.1687 0002153  86.3776 273.7666 14.34220735454885
IRIDIUM 111             
1 41926U 17003K   25265.55859067  .00000275  00000+0  91019-4 0  9995
2 41926  86.4026 200.1513 0002332  83.8604 276.2858 14.34218876454893
IRIDIUM 113             
1 42803U 17039A   25265.53855407  .00000046  00000+0  92498-5 0  9990
2 42803  86.3919  74.0418 0001999  94.9792 265.1632 14.34217902432824
IRIDIUM 123             
1 42804U 17039B   25265.58003540  .00000039  00000+0  67627-5 0  9997
2 42804  86.3919 105.5284 0002429  87.8832 272.2642 14.34217650431594
IRIDIUM 120             
1 42805U 17039C   25265.53221050  .00000020  00000+0  22048-6 0  9990
2 42805  86.3909  73.8613 0002256  83.5804 276.5649 14.34217598432818
IRIDIUM 115             
1 42806U 17039D   25265.50153745  .00000208  00000+0  55807-4 0  9998
2 42806  86.4444  73.9663 0002856  87.6302 272.5226 14.43281377435652
IRIDIUM 118             
1 42807U 17039E   25265.54197783  .00000079  00000+0  21245-4 0  9998
2 42807  86.3920 105.5437 0002010  93.0841 267.0585 14.34218130431585
IRIDIUM 117             
1 42808U 17039F   25265.56100795  .00000081  00000+0  21771-4 0  9995
2 42808  86.3921 105.4960 0002348  89.1413 271.0052 14.34218830431617
